NORAD_CAT_ID,OBJECT_NAME,OBJECT_TYPE,EPOCH,MEAN_MOTION,ECCENTRICITY,INCLINATION,RA_OF_ASC_NODE,ARG_OF_PERICENTER,MEAN_ANOMALY,BSTAR,MEAN_MOTION_DOT,MEAN_MOTION_DDOT,TLE_LINE0,TLE_LINE1,TLE_LINE2,SEMIMAJOR_AXIS,PERIOD,APOGEE,PERIGEE,DECAYED
52115.0,STARLINK-3685,PAYLOAD,2023-04-26 10:01:30,15.08834667,0.0001464,53.2169,104.9931,101.8934,258.2222,9.6382e-06,-1.35e-06,0.0,0 STARLINK-3685,1 52115U 22029AD  23116.41771957 -.00000135  00000-0  96382-5 0  9996,2 52115  53.2169 104.9931 0001464 101.8934 258.2222 15.08834667 62537,6917.897,95.438,540.774,538.749,0.0
52115.0,STARLINK-3685,PAYLOAD,2023-04-26 16:23:03,15.08837881,0.0001446,53.217,103.8042,102.4955,257.6199,3.3541e-05,2.46e-06,0.0,0 STARLINK-3685,1 52115U 22029AD  23116.68267725  .00000246  00000-0  33541-4 0  9997,2 52115  53.2170 103.8042 0001446 102.4955 257.6199 15.08837881 62571,6917.887,95.438,540.752,538.752,0.0
52115.0,STARLINK-3685,PAYLOAD,2023-04-27 08:16:54,15.08843723,0.000127,53.2164,100.8301,105.2597,254.8536,0.00014125,1.961e-05,0.0,0 STARLINK-3685,1 52115U 22029AD  23117.34507070  .00001961  00000-0  14125-3 0  9992,2 52115  53.2164 100.8301 0001270 105.2597 254.8536 15.08843723 62674,6917.869,95.437,540.613,538.855,0.0
52115.0,STARLINK-3685,PAYLOAD,2023-04-28 04:56:55,15.0883965,0.0001238,53.2164,96.9646,103.1192,256.9938,7.7162e-05,9.4e-06,0.0,0 STARLINK-3685,1 52115U 22029AD  23118.20619607  .00000940  00000-0  77162-4 0  9995,2 52115  53.2164  96.9646 0001238 103.1192 256.9938 15.08839650 62801,6917.881,95.438,540.603,538.89,0.0
52115.0,STARLINK-3685,PAYLOAD,2023-04-28 08:07:41,15.08843224,0.0001276,53.216,96.3697,102.466,257.6475,0.00010923,1.451e-05,0.0,0 STARLINK-3685,1 52115U 22029AD  23118.33867285  .00001451  00000-0  10923-3 0  9995,2 52115  53.2160  96.3697 0001276 102.4660 257.6475 15.08843224 62829,6917.871,95.437,540.618,538.853,0.0
52115.0,STARLINK-3685,PAYLOAD,2023-04-29 07:58:28,15.08845405,0.0001292,53.2161,91.908,103.2022,256.9114,1.9487e-05,2.2e-07,0.0,0 STARLINK-3685,1 52115U 22029AD  23119.33227165  .00000022  00000-0  19487-4 0  9991,2 52115  53.2161  91.9080 0001292 103.2022 256.9114 15.08845405 62977,6917.864,95.437,540.623,538.835,0.0
52115.0,STARLINK-3685,PAYLOAD,2023-04-30 01:27:43,15.08839088,0.0001165,53.2161,88.6367,97.7149,262.3975,-1.7286e-05,-5.63e-06,0.0,0 STARLINK-3685,1 52115U 22029AD  23120.06091754 -.00000563  00000-0 -17286-4 0  9993,2 52115  53.2161  88.6367 0001165  97.7149 262.3975 15.08839088 63083,6917.883,95.438,540.554,538.942,0.0
52115.0,STARLINK-3685,PAYLOAD,2023-04-30 07:49:15,15.08838043,0.0001146,53.2165,87.4472,99.4789,260.6333,3.2524e-05,2.3e-06,0.0,0 STARLINK-3685,1 52115U 22029AD  23120.32587637  .00000230  00000-0  32524-4 0  9993,2 52115  53.2165  87.4472 0001146  99.4789 260.6333 15.08838043 63123,6917.886,95.438,540.544,538.959,0.0
52115.0,STARLINK-3685,PAYLOAD,2023-05-01 02:53:53,15.08835219,0.00014,53.2174,83.8785,102.3355,257.7794,-2.8777e-07,-2.92e-06,0.0,0 STARLINK-3685,1 52115U 22029AD  23121.12076118 -.00000292  00000-0 -28777-6 0  9996,2 52115  53.2174  83.8785 0001400 102.3355 257.7794 15.08835219 63249,6917.895,95.438,540.729,538.791,0.0
52115.0,STARLINK-3685,PAYLOAD,2023-05-02 07:30:49,15.08842238,0.0001299,53.2185,78.527,90.1778,269.9362,8.1667e-05,1.012e-05,0.0,0 STARLINK-3685,1 52115U 22029AD  23122.31307758  .00001012  00000-0  81667-4 0  9999,2 52115  53.2185  78.5270 0001299  90.1778 269.9362 15.08842238 63425,6917.874,95.437,540.637,538.84,0.0
52115.0,STARLINK-3685,PAYLOAD,2023-05-02 21:49:18,15.08837168,0.0001168,53.218,75.852,86.7553,273.3573,4.7217e-05,4.64e-06,0.0,0 STARLINK-3685,1 52115U 22029AD  23122.90924328  .00000464  00000-0  47217-4 0  9995,2 52115  53.2180  75.8520 0001168  86.7553 273.3573 15.08837168 63514,6917.889,95.438,540.562,538.946,0.0
52115.0,STARLINK-3685,PAYLOAD,2023-05-03 04:10:51,15.08839329,0.0001143,53.218,74.6625,88.4828,271.6295,5.7804e-05,6.32e-06,0.0,0 STARLINK-3685,1 52115U 22029AD  23123.17420202  .00000632  00000-0  57804-4 0  9997,2 52115  53.2180  74.6625 0001143  88.4828 271.6295 15.08839329 63551,6917.882,95.438,540.538,538.957,0.0
52115.0,STARLINK-3685,PAYLOAD,2023-05-03 05:46:14,15.08840597,0.0001153,53.218,74.3652,83.4694,276.643,6.7731e-05,7.9e-06,0.0,0 STARLINK-3685,1 52115U 22029AD  23123.24044116  .00000790  00000-0  67731-4 0  9996,2 52115  53.2180  74.3652 0001153  83.4694 276.6430 15.08840597 63561,6917.879,95.438,540.541,538.946,0.0
52115.0,STARLINK-3685,PAYLOAD,2023-05-03 21:40:05,15.08781806,0.0001434,53.2178,71.3919,89.0287,271.087,0.00073833,0.00011463,0.0,0 STARLINK-3685,1 52115U 22029AD  23123.90284714  .00011463  00000-0  73833-3 0  9997,2 52115  53.2178  71.3919 0001434  89.0287 271.0870 15.08781806 63668,6918.058,95.441,540.915,538.931,0.0
52115.0,STARLINK-3685,PAYLOAD,2023-05-04 05:37:01,15.08827038,0.0001254,53.218,69.905,93.8606,266.2529,0.00031355,4.704e-05,0.0,0 STARLINK-3685,1 52115U 22029AD  23124.23404203  .00004704  00000-0  31355-3 0  9994,2 52115  53.2180  69.9050 0001254  93.8606 266.2529 15.08827038 63719,6917.92,95.438,540.653,538.918,0.0
52115.0,STARLINK-3685,PAYLOAD,2023-05-04 19:55:29,15.08835368,0.000125,53.2184,67.2292,80.3405,279.7728,4.9319e-05,4.97e-06,0.0,0 STARLINK-3685,1 52115U 22029AD  23124.83020575  .00000497  00000-0  49319-4 0  9991,2 52115  53.2184  67.2292 0001250  80.3405 279.7728 15.08835368 63801,6917.895,95.438,540.624,538.895,0.0
52115.0,STARLINK-3685,PAYLOAD,2023-05-05 05:27:47,15.08844453,0.0001121,53.2178,65.4443,87.6763,272.4358,7.7924e-05,9.53e-06,0.0,0 STARLINK-3685,1 52115U 22029AD  23125.22763888  .00000953  00000-0  77924-4 0  9996,2 52115  53.2178  65.4443 0001121  87.6763 272.4358 15.08844453 63866,6917.867,95.437,540.507,538.956,0.0
52115.0,STARLINK-3685,PAYLOAD,2023-05-06 02:07:49,15.08839906,0.0001329,53.2176,61.5773,101.0531,259.0611,-5.4308e-05,-1.152e-05,0.0,0 STARLINK-3685,1 52115U 22029AD  23126.08876696 -.00001152  00000-0 -54308-4 0  9998,2 52115  53.2176  61.5773 0001329 101.0531 259.0611 15.08839906 63995,6917.881,95.438,540.665,538.826,0.0
52115.0,STARLINK-3685,PAYLOAD,2023-05-07 01:58:35,15.08854653,9.95e-05,53.2182,57.1163,89.6961,270.4145,0.00017089,2.434e-05,0.0,0 STARLINK-3685,1 52115U 22029AD  23127.08235035  .00002434  00000-0  17089-3 0  9991,2 52115  53.2182  57.1163 0000995  89.6961 270.4145 15.08854653 64145,6917.836,95.437,540.389,539.012,0.0
52115.0,STARLINK-3685,PAYLOAD,2023-05-07 05:09:21,15.08858975,0.0001191,53.2179,56.522,92.7037,267.4091,0.00018,2.579e-05,0.0,0 STARLINK-3685,1 52115U 22029AD  23127.21482718  .00002579  00000-0  18000-3 0  9992,2 52115  53.2179  56.5220 0001191  92.7037 267.4091 15.08858975 64165,6917.822,95.436,540.511,538.863,0.0
52115.0,STARLINK-3685,PAYLOAD,2023-05-08 01:49:24,15.08831224,9.81e-05,53.2181,52.657,98.2633,261.8471,2.9638e-06,-2.41e-06,0.0,0 STARLINK-3685,1 52115U 22029AD  23128.07597554 -.00000241  00000-0  29638-5 0  9998,2 52115  53.2181  52.6570 0000981  98.2633 261.8471 15.08831224 64294,6917.907,95.438,540.451,539.094,0.0
52115.0,STARLINK-3685,PAYLOAD,2023-05-08 11:21:42,15.08837928,9.44e-05,53.2177,50.8732,97.4171,262.6929,5.847e-05,6.43e-06,0.0,0 STARLINK-3685,1 52115U 22029AD  23128.47341019  .00000643  00000-0  58470-4 0  9995,2 52115  53.2177  50.8732 0000944  97.4171 262.6929 15.08837928 64357,6917.887,95.438,540.405,539.099,0.0
52115.0,STARLINK-3685,PAYLOAD,2023-05-08 22:29:24,15.08844785,8.48e-05,53.2179,48.7917,98.4348,261.674,0.00019413,2.804e-05,0.0,0 STARLINK-3685,1 52115U 22029AD  23128.93708797  .00002804  00000-0  19413-3 0  9990,2 52115  53.2179  48.7917 0000848  98.4348 261.6740 15.08844785 64427,6917.866,95.437,540.317,539.144,0.0
52115.0,STARLINK-3685,PAYLOAD,2023-05-09 01:40:10,15.08851778,8.71e-05,53.218,48.1972,100.1328,259.9763,0.00036411,5.514e-05,0.0,0 STARLINK-3685,1 52115U 22029AD  23129.06956591  .00005514  00000-0  36411-3 0  9990,2 52115  53.2180  48.1972 0000871 100.1328 259.9763 15.08851778 64446,6917.844,95.437,540.312,539.107,0.0
52115.0,STARLINK-3685,PAYLOAD,2023-05-10 04:41:43,15.08852482,6.82e-05,53.2174,43.1425,82.2638,277.8431,0.00038377,5.827e-05,0.0,0 STARLINK-3685,1 52115U 22029AD  23130.19564755  .00005827  00000-0  38377-3 0  9993,2 52115  53.2174  43.1425 0000682  82.2638 277.8431 15.08852482 64614,6917.842,95.437,540.179,539.235,0.0
52115.0,STARLINK-3685,PAYLOAD,2023-05-11 01:21:44,15.08854197,8e-05,53.2168,39.2779,112.8283,247.2794,0.00064275,9.96e-05,0.0,0 STARLINK-3685,1 52115U 22029AD  23131.05676603  .00009960  00000-0  64275-3 0  9993,2 52115  53.2168  39.2779 0000800 112.8283 247.2794 15.08854197 64745,6917.837,95.437,540.255,539.149,0.0
52115.0,STARLINK-3685,PAYLOAD,2023-05-11 23:37:09,15.08835636,8.92e-05,53.2178,35.1145,102.6302,257.479,5.2446e-05,5.47e-06,0.0,0 STARLINK-3685,1 52115U 22029AD  23131.98413234  .00000547  00000-0  52446-4 0  9994,2 52115  53.2178  35.1145 0000892 102.6302 257.4790 15.08835636 64889,6917.894,95.438,540.376,539.142,0.0
52115.0,STARLINK-3685,PAYLOAD,2023-05-12 01:12:32,15.08838634,8.77e-05,53.2179,34.817,101.3209,258.7882,3.7144e-05,3.03e-06,0.0,0 STARLINK-3685,1 52115U 22029AD  23132.05037213  .00000303  00000-0  37144-4 0  9990,2 52115  53.2179  34.8170 0000877 101.3209 258.7882 15.08838634 64897,6917.885,95.438,540.356,539.143,0.0
52115.0,STARLINK-3685,PAYLOAD,2023-05-13 02:38:42,15.08851401,8.91e-05,53.2169,30.0597,118.6288,241.4793,0.00045548,6.971e-05,0.0,0 STARLINK-3685,1 52115U 22029AD  23133.11021100  .00006971  00000-0  45548-3 0  9999,2 52115  53.2169  30.0597 0000891 118.6288 241.4793 15.08851401 65057,6917.846,95.437,540.327,539.094,0.0
52115.0,STARLINK-3685,PAYLOAD,2023-05-13 20:07:57,15.08841767,9.06e-05,53.2167,26.789,80.6511,279.4584,0.00021181,3.085e-05,0.0,0 STARLINK-3685,1 52115U 22029AD  23133.83885664  .00003085  00000-0  21181-3 0  9991,2 52115  53.2167  26.7890 0000906  80.6511 279.4584 15.08841767 65162,6917.875,95.437,540.367,539.113,0.0
